STARLINK-11388 [DTC]    
1 62092U 24220E   26163.37363938  .00162166  00000+0  12433-2 0  9995
2 62092  42.9935 192.4246 0001314 259.3484 100.7236 15.70830204 89843
STARLINK-11345 [DTC]    
1 62093U 24220F   26164.25002315 -.00137981  00000+0 -10879-2 0  9994
2 62093  43.0000 187.0723 0001659 254.7472  57.3485 15.70879990  5933
STARLINK-11381 [DTC]    
1 62094U 24220G   26164.12601818  .00004447  00000+0  38149-4 0  9994
2 62094  42.9989 187.7442 0000716 246.4586 113.6207 15.70826767 89967
STARLINK-11369 [DTC]    
1 62095U 24220H   26164.12071279  .00199620  00000+0  15129-2 0  9996
2 62095  42.9985 187.6990 0001328 308.8107  51.2642 15.70984112 90065
STARLINK-11303 [DTC]    
1 62096U 24220J   26163.79748320  .00189205  00000+0  14399-2 0  9993
2 62096  42.9965 189.5727 0001812 273.1524  86.9136 15.70919103 90014
STARLINK-11367 [DTC]    
1 62097U 24220K   26163.79217731  .00308703  00000+0  23079-2 0  9992
2 62097  42.9996 189.5311 0001524 290.2721  69.7983 15.70975352 90014
STARLINK-11386 [DTC]    
1 62098U 24220L   26163.78687464  .00382874  00000+0  28184-2 0  9999
2 62098  42.9929 189.4877 0001889 304.0558  56.0130 15.71122388 89917
STARLINK-11380 [DTC]    
1 62099U 24220M   26164.29021526  .00063113  00000+0  49139-3 0  9994
2 62099  42.9999 186.3704 0002312 217.0746 142.9963 15.70849578 89997
STARLINK-33566          
1 62100U 24220N   26163.33335648 -.00013180  00000+0 -47012-3 0  9993
2 62100  43.0040  16.3396 0001669 271.3797 152.1828 15.27589073  5883
STARLINK-33545          
1 62101U 24220P   26163.88923732  .00016755  00000+0  61649-3 0  9992
2 62101  43.0100  27.6658 0001932 282.7108  77.3528 15.27608365 87580
STARLINK-33562          
1 62102U 24220Q   26164.09695278  .00016908  00000+0  62156-3 0  9992
2 62102  43.0102  26.6412 0002164 278.1339  81.9267 15.27632177 87616
STARLINK-33554          
1 62103U 24220R   26163.88538167  .00020151  00000+0  73900-3 0  9996
2 62103  42.9917  27.6253 0001323 117.3940 242.7046 15.27615734 87512
STARLINK-33555          
1 62104U 24220S   26163.91878778  .00016778  00000+0  61779-3 0  9997
2 62104  42.9983  27.8771 0001485 273.4901  86.5781 15.27582975 87726
STARLINK-33559          
1 62107U 24220V   26163.32645775  .00024657  00000+0  90227-3 0  9999
2 62107  42.9875  31.1707 0001945 286.4017  73.6620 15.27589100 87668
STARLINK-33553          
1 62108U 24220W   26163.31873852  .00028141  00000+0  10274-2 0  9993
2 62108  42.9940  31.1119 0003800 271.3957  88.6459 15.27602600 87664
STARLINK-33556          
1 62109U 24220X   26164.08924509  .00021230  00000+0  77757-3 0  9997
2 62109  43.0097  26.5836 0003689 289.5235  70.5218 15.27627311 87804
STARLINK-33551          
1 62110U 24220Y   26163.97646752  .00019155  00000+0  70383-3 0  9998
2 62110  43.0018  27.4522 0001314 272.6659  87.4042 15.27578297 87762
GUANGCHUAN 01           
1 62111U 24221A   26164.21110665  .00002394  00000+0  14399-3 0  9999
2 62111  49.9426 181.5070 0007755 284.9849  75.0242 15.14612053 85581
GUANGCHUAN 02           
1 62112U 24221B   26164.14793616  .00002467  00000+0  14806-3 0  9999
2 62112  49.9410 181.7582 0006958 328.5861  31.4673 15.14580338 85560
STARLINK-32311          
1 62114U 24222A   26163.11751992  .00018093  00000+0  66546-3 0  9999
2 62114  43.0027 307.9266 0001123 276.8213  83.2511 15.27577356 87521
STARLINK-32470          
1 62115U 24222B   26161.75161462  .00019922  00000+0  73116-3 0  9998
2 62115  43.0014 330.4493 0001765 263.1218  96.9433 15.27596628 87131
STARLINK-32502          
1 62116U 24222C   26164.12735784  .00005360  00000+0  20411-3 0  9998
2 62116  43.0000 317.3120 0000770 279.6696  80.4068 15.27583448 87403
STARLINK-32521          
1 62117U 24222D   26163.72137397  .00023636  00000+0  86598-3 0  9994
2 62117  43.0014 315.8524 0001412 272.1273  87.9417 15.27569216 87321
STARLINK-32549          
1 62118U 24222E   26163.69905689  .00023502  00000+0  85975-3 0  9998
2 62118  43.0023 319.2612 0001202 129.5951 230.5007 15.27622667 87346
STARLINK-32535          
1 62119U 24222F   26164.13555435  .00019874  00000+0  72945-3 0  9999
2 62119  43.0016 313.9201 0000558 268.8028  91.2760 15.27594590 87395
STARLINK-32548          
1 62120U 24222G   26164.14150121  .00019875  00000+0  72946-3 0  9997
2 62120  42.9974 317.4204 0000691  35.4707 324.6190 15.27595730 87353
STARLINK-32525          
1 62121U 24222H   26163.70548292  .00019100  00000+0  70108-3 0  9998
2 62121  43.0021 319.3105 0001089 275.0476  85.0252 15.27613290 87299
STARLINK-32628          
1 62122U 24222J   26163.72347083  .00018052  00000+0  66325-3 0  9997
2 62122  43.0119 319.4478 0000842 139.9915 220.0999 15.27613522 87459
STARLINK-32626          
1 62123U 24222K   26164.13506467  .00020686  00000+0  75883-3 0  9992
2 62123  42.9990 317.3719 0002462 268.0982  91.9588 15.27591581 87345
STARLINK-32608          
1 62124U 24222L   26163.71704691  .00019091  00000+0  70076-3 0  9992
2 62124  43.0102 319.4016 0000940 123.6555 236.4386 15.27614360 87272
