OBJECT_NAME,OBJECT_ID,EPOCH,MEAN_MOTION,ECCENTRICITY,INCLINATION,RA_OF_ASC_NODE,ARG_OF_PERICENTER,MEAN_ANOMALY,EPHEMERIS_TYPE,CLASSIFICATION_TYPE,NORAD_CAT_ID,ELEMENT_SET_NO,REV_AT_EPOCH,BSTAR,MEAN_MOTION_DOT,MEAN_MOTION_DDOT
STARLINK-11388 [DTC],2024-220E,2026-06-12T08:58:02.442432,15.70830204,.00013148,42.9935,192.4246,259.3484,100.7236,0,U,62092,999,8984,.12432928E-2,.162166E-2,0
STARLINK-11345 [DTC],2024-220F,2026-06-13T06:00:02.000160,15.70879990,.00016596,43.0000,187.0723,254.7472,57.3485,0,U,62093,999,593,-.10878569E-2,-.137981E-2,0
STARLINK-11381 [DTC],2024-220G,2026-06-13T03:01:27.970752,15.70826767,.0000716,42.9989,187.7442,246.4586,113.6207,0,U,62094,999,8996,.38148998E-4,.4447E-4,0
STARLINK-11369 [DTC],2024-220H,2026-06-13T02:53:49.585056,15.70984112,.00013286,42.9985,187.6990,308.8107,51.2642,0,U,62095,999,9006,.15129382E-2,.19962E-2,0
STARLINK-11303 [DTC],2024-220J,2026-06-12T19:08:22.548480,15.70919103,.0001812,42.9965,189.5727,273.1524,86.9136,0,U,62096,999,9001,.14398892E-2,.189205E-2,0
STARLINK-11367 [DTC],2024-220K,2026-06-12T19:00:44.119584,15.70975352,.0001524,42.9996,189.5311,290.2721,69.7983,0,U,62097,999,9001,.23079019E-2,.308703E-2,0
STARLINK-11386 [DTC],2024-220L,2026-06-12T18:53:05.968896,15.71122388,.00018899,42.9929,189.4877,304.0558,56.0130,0,U,62098,999,8991,.28184372E-2,.382874E-2,0
STARLINK-11380 [DTC],2024-220M,2026-06-13T06:57:54.598464,15.70849578,.0002312,42.9999,186.3704,217.0746,142.9963,0,U,62099,999,8999,.491387E-3,.63113E-3,0
STARLINK-33566,2024-220N,2026-06-12T08:00:01.999872,15.27589073,.00016695,43.0040,16.3396,271.3797,152.1828,0,U,62100,999,588,-.47012384E-3,-.1318E-3,0
STARLINK-33545,2024-220P,2026-06-12T21:20:30.104448,15.27608365,.00019326,43.0100,27.6658,282.7108,77.3528,0,U,62101,999,8758,.61648965E-3,.16755E-3,0
STARLINK-33562,2024-220Q,2026-06-13T02:19:36.720192,15.27632177,.0002164,43.0102,26.6412,278.1339,81.9267,0,U,62102,999,8761,.621559E-3,.16908E-3,0
STARLINK-33554,2024-220R,2026-06-12T21:14:56.976288,15.27615734,.00013234,42.9917,27.6253,117.3940,242.7046,0,U,62103,999,8751,.73899504E-3,.20151E-3,0
STARLINK-33555,2024-220S,2026-06-12T22:03:03.264192,15.27582975,.00014857,42.9983,27.8771,273.4901,86.5781,0,U,62104,999,8772,.61779018E-3,.16778E-3,0
STARLINK-33559,2024-220V,2026-06-12T07:50:05.949600,15.27589100,.00019455,42.9875,31.1707,286.4017,73.6620,0,U,62107,999,8766,.90227282E-3,.24657E-3,0
STARLINK-33553,2024-220W,2026-06-12T07:38:59.008128,15.27602600,.00038003,42.9940,31.1119,271.3957,88.6459,0,U,62108,999,8766,.10274034E-2,.28141E-3,0
STARLINK-33556,2024-220X,2026-06-13T02:08:30.775776,15.27627311,.0003689,43.0097,26.5836,289.5235,70.5218,0,U,62109,999,8780,.7775694E-3,.2123E-3,0
STARLINK-33551,2024-220Y,2026-06-12T23:26:06.793728,15.27578297,.00013145,43.0018,27.4522,272.6659,87.4042,0,U,62110,999,8776,.70382578E-3,.19155E-3,0
GUANGCHUAN 01,2024-221A,2026-06-13T05:03:59.614560,15.14612053,.00077557,49.9426,181.5070,284.9849,75.0242,0,U,62111,999,8558,.14399051E-3,.2394E-4,0
GUANGCHUAN 02,2024-221B,2026-06-13T03:33:01.684224,15.14580338,.00069584,49.9410,181.7582,328.5861,31.4673,0,U,62112,999,8556,.14805724E-3,.2467E-4,0
STARLINK-32311,2024-222A,2026-06-12T02:49:13.721088,15.27577356,.00011238,43.0027,307.9266,276.8213,83.2511,0,U,62114,999,8752,.66545984E-3,.18093E-3,0
STARLINK-32470,2024-222B,2026-06-10T18:02:19.503168,15.27596628,.00017655,43.0014,330.4493,263.1218,96.9433,0,U,62115,999,8713,.73115832E-3,.19922E-3,0
STARLINK-32502,2024-222C,2026-06-13T03:03:23.717376,15.27583448,.000077,43.0000,317.3120,279.6696,80.4068,0,U,62116,999,8740,.20411481E-3,.536E-4,0
STARLINK-32521,2024-222D,2026-06-12T17:18:46.711008,15.27569216,.00014126,43.0014,315.8524,272.1273,87.9417,0,U,62117,999,8732,.86597907E-3,.23636E-3,0
STARLINK-32549,2024-222E,2026-06-12T16:46:38.515296,15.27622667,.00012027,43.0023,319.2612,129.5951,230.5007,0,U,62118,999,8734,.85974748E-3,.23502E-3,0
STARLINK-32535,2024-222F,2026-06-13T03:15:11.895840,15.27594590,.00005581,43.0016,313.9201,268.8028,91.2760,0,U,62119,999,8739,.7294519E-3,.19874E-3,0
STARLINK-32548,2024-222G,2026-06-13T03:23:45.704544,15.27595730,.00006914,42.9974,317.4204,35.4707,324.6190,0,U,62120,999,8735,.72946204E-3,.19875E-3,0
STARLINK-32525,2024-222H,2026-06-12T16:55:53.724288,15.27613290,.00010891,43.0021,319.3105,275.0476,85.0252,0,U,62121,999,8729,.7010842E-3,.191E-3,0
STARLINK-32628,2024-222J,2026-06-12T17:21:47.879712,15.27613522,.00008422,43.0119,319.4478,139.9915,220.0999,0,U,62122,999,8745,.66325126E-3,.18052E-3,0
STARLINK-32626,2024-222K,2026-06-13T03:14:29.587488,15.27591581,.00024629,42.9990,317.3719,268.0982,91.9588,0,U,62123,999,8734,.7588326E-3,.20686E-3,0
STARLINK-32608,2024-222L,2026-06-12T17:12:32.853024,15.27614360,.00009402,43.0102,319.4016,123.6555,236.4386,0,U,62124,999,8727,.70075801E-3,.19091E-3,0
